CCSDS_OMM_VERS = 2.0
CREATION_DATE  = 
ORIGINATOR     = 

OBJECT_NAME    = STARLINK-36847
OBJECT_ID      = 2026-036G
CENTER_NAME    = EARTH
REF_FRAME      = TEME
TIME_SYSTEM    = UTC
MEAN_ELEMENT_THEORY = SGP/SGP4

EPOCH          = 2026-03-06T14:00:01.000224
MEAN_MOTION    = 15.81929826
ECCENTRICITY   = .00017761
INCLINATION    = 42.9992
RA_OF_ASC_NODE = 268.7824
ARG_OF_PERICENTER = 271.4539
MEAN_ANOMALY   = 274.7923

EPHEMERIS_TYPE = 0
CLASSIFICATION_TYPE = U
NORAD_CAT_ID   = 67910
ELEMENT_SET_NO = 999
REV_AT_EPOCH   = 314
BSTAR          = .65882901E-3
MEAN_MOTION_DOT = .139891E-2
MEAN_MOTION_DDOT = 0

CCSDS_OMM_VERS = 2.0
CREATION_DATE  = 
ORIGINATOR     = 

OBJECT_NAME    = STARLINK-36736
OBJECT_ID      = 2026-036H
CENTER_NAME    = EARTH
REF_FRAME      = TEME
TIME_SYSTEM    = UTC
MEAN_ELEMENT_THEORY = SGP/SGP4

EPOCH          = 2026-03-06T14:00:01.000224
MEAN_MOTION    = 15.81996959
ECCENTRICITY   = .00017518
INCLINATION    = 42.9993
RA_OF_ASC_NODE = 268.7713
ARG_OF_PERICENTER = 282.2449
MEAN_ANOMALY   = 268.2404

EPHEMERIS_TYPE = 0
CLASSIFICATION_TYPE = U
NORAD_CAT_ID   = 67911
ELEMENT_SET_NO = 999
REV_AT_EPOCH   = 314
BSTAR          = .16641535E-3
MEAN_MOTION_DOT = .34617E-3
MEAN_MOTION_DDOT = 0

CCSDS_OMM_VERS = 2.0
CREATION_DATE  = 
ORIGINATOR     = 

OBJECT_NAME    = STARLINK-36676
OBJECT_ID      = 2026-036J
CENTER_NAME    = EARTH
REF_FRAME      = TEME
TIME_SYSTEM    = UTC
MEAN_ELEMENT_THEORY = SGP/SGP4

EPOCH          = 2026-03-06T14:00:01.000224
MEAN_MOTION    = 15.82006312
ECCENTRICITY   = .00021057
INCLINATION    = 42.9994
RA_OF_ASC_NODE = 268.7610
ARG_OF_PERICENTER = 275.2470
MEAN_ANOMALY   = 279.5052

EPHEMERIS_TYPE = 0
CLASSIFICATION_TYPE = U
NORAD_CAT_ID   = 67912
ELEMENT_SET_NO = 999
REV_AT_EPOCH   = 314
BSTAR          = .12509783E-3
MEAN_MOTION_DOT = .25876E-3
MEAN_MOTION_DDOT = 0

CCSDS_OMM_VERS = 2.0
CREATION_DATE  = 
ORIGINATOR     = 

OBJECT_NAME    = STARLINK-36690
OBJECT_ID      = 2026-036K
CENTER_NAME    = EARTH
REF_FRAME      = TEME
TIME_SYSTEM    = UTC
MEAN_ELEMENT_THEORY = SGP/SGP4

EPOCH          = 2026-03-06T14:00:01.000224
MEAN_MOTION    = 15.81985115
ECCENTRICITY   = .00018083
INCLINATION    = 42.9992
RA_OF_ASC_NODE = 268.7502
ARG_OF_PERICENTER = 297.4399
MEAN_ANOMALY   = 261.5844

EPHEMERIS_TYPE = 0
CLASSIFICATION_TYPE = U
NORAD_CAT_ID   = 67913
ELEMENT_SET_NO = 999
REV_AT_EPOCH   = 314
BSTAR          = .30835896E-3
MEAN_MOTION_DOT = .6479E-3
MEAN_MOTION_DDOT = 0

CCSDS_OMM_VERS = 2.0
CREATION_DATE  = 
ORIGINATOR     = 

OBJECT_NAME    = STARLINK-36724
OBJECT_ID      = 2026-036L
CENTER_NAME    = EARTH
REF_FRAME      = TEME
TIME_SYSTEM    = UTC
MEAN_ELEMENT_THEORY = SGP/SGP4

EPOCH          = 2026-03-06T14:00:01.000224
MEAN_MOTION    = 15.81981535
ECCENTRICITY   = .00019718
INCLINATION    = 42.9995
RA_OF_ASC_NODE = 268.7275
ARG_OF_PERICENTER = 294.7056
MEAN_ANOMALY   = 272.8724

EPHEMERIS_TYPE = 0
CLASSIFICATION_TYPE = U
NORAD_CAT_ID   = 67914
ELEMENT_SET_NO = 999
REV_AT_EPOCH   = 314
BSTAR          = .29912399E-3
MEAN_MOTION_DOT = .6281E-3
MEAN_MOTION_DDOT = 0

CCSDS_OMM_VERS = 2.0
CREATION_DATE  = 
ORIGINATOR     = 

OBJECT_NAME    = STARLINK-36723
OBJECT_ID      = 2026-036M
CENTER_NAME    = EARTH
REF_FRAME      = TEME
TIME_SYSTEM    = UTC
MEAN_ELEMENT_THEORY = SGP/SGP4

EPOCH          = 2026-03-06T14:00:01.000224
MEAN_MOTION    = 15.81991514
ECCENTRICITY   = .00016341
INCLINATION    = 42.9993
RA_OF_ASC_NODE = 268.7393
ARG_OF_PERICENTER = 284.7477
MEAN_ANOMALY   = 278.5527

EPHEMERIS_TYPE = 0
CLASSIFICATION_TYPE = U
NORAD_CAT_ID   = 67915
ELEMENT_SET_NO = 999
REV_AT_EPOCH   = 314
BSTAR          = .20370175E-3
MEAN_MOTION_DOT = .42521E-3
MEAN_MOTION_DDOT = 0

CCSDS_OMM_VERS = 2.0
CREATION_DATE  = 
ORIGINATOR     = 

OBJECT_NAME    = STARLINK-36721
OBJECT_ID      = 2026-036N
CENTER_NAME    = EARTH
REF_FRAME      = TEME
TIME_SYSTEM    = UTC
MEAN_ELEMENT_THEORY = SGP/SGP4

EPOCH          = 2026-03-06T14:00:01.000224
MEAN_MOTION    = 15.81984972
ECCENTRICITY   = .00018189
INCLINATION    = 42.9991
RA_OF_ASC_NODE = 268.7180
ARG_OF_PERICENTER = 283.2564
MEAN_ANOMALY   = 288.5919

EPHEMERIS_TYPE = 0
CLASSIFICATION_TYPE = U
NORAD_CAT_ID   = 67916
ELEMENT_SET_NO = 999
REV_AT_EPOCH   = 314
BSTAR          = .23635781E-3
MEAN_MOTION_DOT = .49448E-3
MEAN_MOTION_DDOT = 0

CCSDS_OMM_VERS = 2.0
CREATION_DATE  = 
ORIGINATOR     = 

OBJECT_NAME    = STARLINK-36722
OBJECT_ID      = 2026-036P
CENTER_NAME    = EARTH
REF_FRAME      = TEME
TIME_SYSTEM    = UTC
MEAN_ELEMENT_THEORY = SGP/SGP4

EPOCH          = 2026-03-06T14:00:01.000224
MEAN_MOTION    = 15.81953258
ECCENTRICITY   = .0001767
INCLINATION    = 42.9991
RA_OF_ASC_NODE = 268.7069
ARG_OF_PERICENTER = 277.8706
MEAN_ANOMALY   = 298.2578

EPHEMERIS_TYPE = 0
CLASSIFICATION_TYPE = U
NORAD_CAT_ID   = 67917
ELEMENT_SET_NO = 999
REV_AT_EPOCH   = 314
BSTAR          = .71916622E-3
MEAN_MOTION_DOT = .153155E-2
MEAN_MOTION_DDOT = 0

CCSDS_OMM_VERS = 2.0
CREATION_DATE  = 
ORIGINATOR     = 

OBJECT_NAME    = STARLINK-36341
OBJECT_ID      = 2026-036Q
CENTER_NAME    = EARTH
REF_FRAME      = TEME
TIME_SYSTEM    = UTC
MEAN_ELEMENT_THEORY = SGP/SGP4

EPOCH          = 2026-03-06T14:00:01.000224
MEAN_MOTION    = 15.81964942
ECCENTRICITY   = .00019031
INCLINATION    = 42.9974
RA_OF_ASC_NODE = 268.6842
ARG_OF_PERICENTER = 253.9995
MEAN_ANOMALY   = 330.6690

EPHEMERIS_TYPE = 0
CLASSIFICATION_TYPE = U
NORAD_CAT_ID   = 67918
ELEMENT_SET_NO = 999
REV_AT_EPOCH   = 314
BSTAR          = .54294079E-3
MEAN_MOTION_DOT = .115048E-2
MEAN_MOTION_DDOT = 0

CCSDS_OMM_VERS = 2.0
CREATION_DATE  = 
ORIGINATOR     = 

OBJECT_NAME    = STARLINK-36663
OBJECT_ID      = 2026-036R
CENTER_NAME    = EARTH
REF_FRAME      = TEME
TIME_SYSTEM    = UTC
MEAN_ELEMENT_THEORY = SGP/SGP4

EPOCH          = 2026-03-06T14:00:01.000224
MEAN_MOTION    = 15.81977798
ECCENTRICITY   = .00020937
INCLINATION    = 42.9991
RA_OF_ASC_NODE = 268.6959
ARG_OF_PERICENTER = 281.2265
MEAN_ANOMALY   = 299.1702

EPHEMERIS_TYPE = 0
CLASSIFICATION_TYPE = U
NORAD_CAT_ID   = 67919
ELEMENT_SET_NO = 999
REV_AT_EPOCH   = 314
BSTAR          = .36998671E-3
MEAN_MOTION_DOT = .7794E-3
MEAN_MOTION_DDOT = 0

CCSDS_OMM_VERS = 2.0
CREATION_DATE  = 
ORIGINATOR     = 

OBJECT_NAME    = STARLINK-36375
OBJECT_ID      = 2026-036S
CENTER_NAME    = EARTH
REF_FRAME      = TEME
TIME_SYSTEM    = UTC
MEAN_ELEMENT_THEORY = SGP/SGP4

EPOCH          = 2026-03-06T14:00:01.000224
MEAN_MOTION    = 15.81970049
ECCENTRICITY   = .0001862
INCLINATION    = 42.9986
RA_OF_ASC_NODE = 268.6740
ARG_OF_PERICENTER = 266.4378
MEAN_ANOMALY   = 322.5118

EPHEMERIS_TYPE = 0
CLASSIFICATION_TYPE = U
NORAD_CAT_ID   = 67920
ELEMENT_SET_NO = 999
REV_AT_EPOCH   = 314
BSTAR          = .47283487E-3
MEAN_MOTION_DOT = .99972E-3
MEAN_MOTION_DDOT = 0

CCSDS_OMM_VERS = 2.0
CREATION_DATE  = 
ORIGINATOR     = 

OBJECT_NAME    = STARLINK-36405
OBJECT_ID      = 2026-036T
CENTER_NAME    = EARTH
REF_FRAME      = TEME
TIME_SYSTEM    = UTC
MEAN_ELEMENT_THEORY = SGP/SGP4

EPOCH          = 2026-03-06T14:00:01.000224
MEAN_MOTION    = 15.81967214
ECCENTRICITY   = .00019788
INCLINATION    = 42.9984
RA_OF_ASC_NODE = 268.6635
ARG_OF_PERICENTER = 270.0379
MEAN_ANOMALY   = 323.1879

EPHEMERIS_TYPE = 0
CLASSIFICATION_TYPE = U
NORAD_CAT_ID   = 67921
ELEMENT_SET_NO = 999
REV_AT_EPOCH   = 314
BSTAR          = .39468098E-3
MEAN_MOTION_DOT = .83186E-3
MEAN_MOTION_DDOT = 0

