STARLINK-36847          
1 67910U 26036G   26065.58334491  .00139891  00000+0  65883-3 0  9999
2 67910  42.9992 268.7824 0001776 271.4539 274.7923 15.81929826  3142
STARLINK-36736          
1 67911U 26036H   26065.58334491  .00034617  00000+0  16642-3 0  9999
2 67911  42.9993 268.7713 0001751 282.2449 268.2404 15.81996959  3147
STARLINK-36676          
1 67912U 26036J   26065.58334491  .00025876  00000+0  12510-3 0  9997
2 67912  42.9994 268.7610 0002105 275.2470 279.5052 15.82006312  3145
STARLINK-36690          
1 67913U 26036K   26065.58334491  .00064790  00000+0  30836-3 0  9997
2 67913  42.9992 268.7502 0001808 297.4399 261.5844 15.81985115  3145
STARLINK-36724          
1 67914U 26036L   26065.58334491  .00062810  00000+0  29912-3 0  9992
2 67914  42.9995 268.7275 0001971 294.7056 272.8724 15.81981535  3141
STARLINK-36723          
1 67915U 26036M   26065.58334491  .00042521  00000+0  20370-3 0  9999
2 67915  42.9993 268.7393 0001634 284.7477 278.5527 15.81991514  3145
STARLINK-36721          
1 67916U 26036N   26065.58334491  .00049448  00000+0  23636-3 0  9993
2 67916  42.9991 268.7180 0001818 283.2564 288.5919 15.81984972  3149
STARLINK-36722          
1 67917U 26036P   26065.58334491  .00153155  00000+0  71917-3 0  9990
2 67917  42.9991 268.7069 0001767 277.8706 298.2578 15.81953258  3148
STARLINK-36341          
1 67918U 26036Q   26065.58334491  .00115048  00000+0  54294-3 0  9999
2 67918  42.9974 268.6842 0001903 253.9995 330.6690 15.81964942  3143
STARLINK-36663          
1 67919U 26036R   26065.58334491  .00077940  00000+0  36999-3 0  9990
2 67919  42.9991 268.6959 0002093 281.2265 299.1702 15.81977798  3143
STARLINK-36375          
1 67920U 26036S   26065.58334491  .00099972  00000+0  47283-3 0  9999
2 67920  42.9986 268.6740 0001862 266.4378 322.5118 15.81970049  3144
STARLINK-36405          
1 67921U 26036T   26065.58334491  .00083186  00000+0  39468-3 0  9996
2 67921  42.9984 268.6635 0001978 270.0379 323.1879 15.81967214  3147
